STARLINK-31826          
1 59768U 24091R   26068.69436063 -.00000809  00000+0 -15209-4 0  9999
2 59768  53.1610  26.9672 0001102  74.8938 285.2185 15.30197191103000
YAOGAN-43 01D           
1 60461U 24148D   26068.43560480  .00010676  00000+0  37766-3 0  9999
2 60461  35.0010  61.7102 0002556 326.2473  33.8080 15.28369377 87008
